[{"OBJECT_NAME":"KUIPER-00027","OBJECT_ID":"2025-088S","EPOCH":"2026-03-05T12:59:06.583488","MEAN_MOTION":14.79940528,"ECCENTRICITY":7.938e-5,"INCLINATION":51.9008,"RA_OF_ASC_NODE":113.9297,"ARG_OF_PERICENTER":84.0673,"MEAN_ANOMALY":276.0379,"EPHEMERIS_TYPE":0,"CLASSIFICATION_TYPE":"U","NORAD_CAT_ID":63740,"ELEMENT_SET_NO":999,"REV_AT_EPOCH":4700,"BSTAR":0.0008715441,"MEAN_MOTION_DOT":6.43e-5,"MEAN_MOTION_DDOT":0},{"OBJECT_NAME":"KUIPER-00028","OBJECT_ID":"2025-088T","EPOCH":"2026-03-04T08:41:10.281984","MEAN_MOTION":14.80003574,"ECCENTRICITY":6.242e-5,"INCLINATION":51.8989,"RA_OF_ASC_NODE":116.6123,"ARG_OF_PERICENTER":77.0276,"MEAN_ANOMALY":283.0756,"EPHEMERIS_TYPE":0,"CLASSIFICATION_TYPE":"U","NORAD_CAT_ID":63741,"ELEMENT_SET_NO":999,"REV_AT_EPOCH":4727,"BSTAR":0.00051058241,"MEAN_MOTION_DOT":3.68e-5,"MEAN_MOTION_DDOT":0},{"OBJECT_NAME":"KUIPER-00029","OBJECT_ID":"2025-088U","EPOCH":"2026-03-05T12:30:24.822432","MEAN_MOTION":14.83621058,"ECCENTRICITY":6.973e-5,"INCLINATION":51.9003,"RA_OF_ASC_NODE":109.1186,"ARG_OF_PERICENTER":97.3784,"MEAN_ANOMALY":262.7259,"EPHEMERIS_TYPE":0,"CLASSIFICATION_TYPE":"U","NORAD_CAT_ID":63742,"ELEMENT_SET_NO":999,"REV_AT_EPOCH":4700,"BSTAR":0.00079667973,"MEAN_MOTION_DOT":6.413e-5,"MEAN_MOTION_DDOT":0},{"OBJECT_NAME":"KUIPER-00030","OBJECT_ID":"2025-088V","EPOCH":"2026-03-05T14:13:07.391424","MEAN_MOTION":14.79924777,"ECCENTRICITY":0.00106873,"INCLINATION":51.8994,"RA_OF_ASC_NODE":128.6615,"ARG_OF_PERICENTER":57.377,"MEAN_ANOMALY":302.8223,"EPHEMERIS_TYPE":0,"CLASSIFICATION_TYPE":"U","NORAD_CAT_ID":63743,"ELEMENT_SET_NO":999,"REV_AT_EPOCH":4702,"BSTAR":0.0004672697,"MEAN_MOTION_DOT":3.343e-5,"MEAN_MOTION_DDOT":0},{"OBJECT_NAME":"KUIPER-00031","OBJECT_ID":"2025-088W","EPOCH":"2026-03-04T12:25:37.043904","MEAN_MOTION":14.83605758,"ECCENTRICITY":0.0002182,"INCLINATION":51.8993,"RA_OF_ASC_NODE":118.6945,"ARG_OF_PERICENTER":127.3613,"MEAN_ANOMALY":232.755,"EPHEMERIS_TYPE":0,"CLASSIFICATION_TYPE":"U","NORAD_CAT_ID":63744,"ELEMENT_SET_NO":999,"REV_AT_EPOCH":4678,"BSTAR":0.00091847,"MEAN_MOTION_DOT":7.427e-5,"MEAN_MOTION_DDOT":0},{"OBJECT_NAME":"KUIPER-00032","OBJECT_ID":"2025-088X","EPOCH":"2026-03-05T15:18:20.049120","MEAN_MOTION":15.37161217,"ECCENTRICITY":0.00053264,"INCLINATION":51.8699,"RA_OF_ASC_NODE":43.8146,"ARG_OF_PERICENTER":98.335,"MEAN_ANOMALY":261.8241,"EPHEMERIS_TYPE":0,"CLASSIFICATION_TYPE":"U","NORAD_CAT_ID":63745,"ELEMENT_SET_NO":999,"REV_AT_EPOCH":4892,"BSTAR":0.00054866619,"MEAN_MOTION_DOT":0.00019943,"MEAN_MOTION_DDOT":0},{"OBJECT_NAME":"KUIPER-00033","OBJECT_ID":"2025-088Y","EPOCH":"2026-03-05T12:17:33.918432","MEAN_MOTION":14.83417251,"ECCENTRICITY":8.06e-5,"INCLINATION":51.9001,"RA_OF_ASC_NODE":144.4321,"ARG_OF_PERICENTER":44.6271,"MEAN_ANOMALY":315.4758,"EPHEMERIS_TYPE":0,"CLASSIFICATION_TYPE":"U","NORAD_CAT_ID":63746,"ELEMENT_SET_NO":999,"REV_AT_EPOCH":4699,"BSTAR":0.00094525904,"MEAN_MOTION_DOT":7.615e-5,"MEAN_MOTION_DDOT":0},{"OBJECT_NAME":"KUIPER-00034","OBJECT_ID":"2025-088Z","EPOCH":"2026-03-05T12:50:06.065952","MEAN_MOTION":14.83522475,"ECCENTRICITY":0.00017525,"INCLINATION":51.9013,"RA_OF_ASC_NODE":106.6706,"ARG_OF_PERICENTER":339.7987,"MEAN_ANOMALY":20.2907,"EPHEMERIS_TYPE":0,"CLASSIFICATION_TYPE":"U","NORAD_CAT_ID":63747,"ELEMENT_SET_NO":999,"REV_AT_EPOCH":4720,"BSTAR":-0.00053365603,"MEAN_MOTION_DOT":-4.66e-5,"MEAN_MOTION_DDOT":0},{"OBJECT_NAME":"KUIPER-00035","OBJECT_ID":"2025-088AA","EPOCH":"2026-03-05T13:45:12.068640","MEAN_MOTION":14.83254806,"ECCENTRICITY":0.00039412,"INCLINATION":51.8997,"RA_OF_ASC_NODE":132.1676,"ARG_OF_PERICENTER":62.6398,"MEAN_ANOMALY":297.4966,"EPHEMERIS_TYPE":0,"CLASSIFICATION_TYPE":"U","NORAD_CAT_ID":63748,"ELEMENT_SET_NO":999,"REV_AT_EPOCH":4690,"BSTAR":0.0010505976,"MEAN_MOTION_DOT":8.456e-5,"MEAN_MOTION_DDOT":0},{"OBJECT_NAME":"KUIPER-00037","OBJECT_ID":"2025-088AB","EPOCH":"2026-03-05T04:25:47.184960","MEAN_MOTION":14.79937985,"ECCENTRICITY":8.867e-5,"INCLINATION":51.8999,"RA_OF_ASC_NODE":132.984,"ARG_OF_PERICENTER":54.3505,"MEAN_ANOMALY":305.754,"EPHEMERIS_TYPE":0,"CLASSIFICATION_TYPE":"U","NORAD_CAT_ID":63749,"ELEMENT_SET_NO":999,"REV_AT_EPOCH":4764,"BSTAR":0.0017319361,"MEAN_MOTION_DOT":0.00013009,"MEAN_MOTION_DDOT":0},{"OBJECT_NAME":"KUIPER-00038","OBJECT_ID":"2025-088AC","EPOCH":"2026-03-05T12:55:15.892896","MEAN_MOTION":14.79961523,"ECCENTRICITY":6.721e-5,"INCLINATION":51.9021,"RA_OF_ASC_NODE":116.4478,"ARG_OF_PERICENTER":95.3872,"MEAN_ANOMALY":264.7167,"EPHEMERIS_TYPE":0,"CLASSIFICATION_TYPE":"U","NORAD_CAT_ID":63750,"ELEMENT_SET_NO":999,"REV_AT_EPOCH":4690,"BSTAR":0.00035107951,"MEAN_MOTION_DOT":2.458e-5,"MEAN_MOTION_DDOT":0},{"OBJECT_NAME":"KUIPER-00039","OBJECT_ID":"2025-134A","EPOCH":"2026-03-05T05:46:58.958688","MEAN_MOTION":14.79934685,"ECCENTRICITY":0.00010232,"INCLINATION":51.8999,"RA_OF_ASC_NODE":252.7644,"ARG_OF_PERICENTER":66.7854,"MEAN_ANOMALY":293.3216,"EPHEMERIS_TYPE":0,"CLASSIFICATION_TYPE":"U","NORAD_CAT_ID":64500,"ELEMENT_SET_NO":999,"REV_AT_EPOCH":3941,"BSTAR":0.00062354002,"MEAN_MOTION_DOT":4.536e-5,"MEAN_MOTION_DDOT":0},{"OBJECT_NAME":"KUIPER-00040","OBJECT_ID":"2025-134B","EPOCH":"2026-03-05T13:35:02.299776","MEAN_MOTION":14.79994547,"ECCENTRICITY":0.00136526,"INCLINATION":51.8976,"RA_OF_ASC_NODE":262.4627,"ARG_OF_PERICENTER":251.0218,"MEAN_ANOMALY":108.9265,"EPHEMERIS_TYPE":0,"CLASSIFICATION_TYPE":"U","NORAD_CAT_ID":64501,"ELEMENT_SET_NO":999,"REV_AT_EPOCH":3930,"BSTAR":0.00050335085,"MEAN_MOTION_DOT":3.626e-5,"MEAN_MOTION_DDOT":0},{"OBJECT_NAME":"KUIPER-00041","OBJECT_ID":"2025-134C","EPOCH":"2026-03-05T13:43:00.096096","MEAN_MOTION":14.78711554,"ECCENTRICITY":0.00070805,"INCLINATION":51.8975,"RA_OF_ASC_NODE":263.8618,"ARG_OF_PERICENTER":252.2565,"MEAN_ANOMALY":107.7624,"EPHEMERIS_TYPE":0,"CLASSIFICATION_TYPE":"U","NORAD_CAT_ID":64502,"ELEMENT_SET_NO":999,"REV_AT_EPOCH":3928,"BSTAR":0.00058533627,"MEAN_MOTION_DOT":4.119e-5,"MEAN_MOTION_DDOT":0},{"OBJECT_NAME":"KUIPER-00042","OBJECT_ID":"2025-134D","EPOCH":"2026-03-05T12:01:43.171968","MEAN_MOTION":14.79950964,"ECCENTRICITY":0.00071501,"INCLINATION":51.8982,"RA_OF_ASC_NODE":260.1126,"ARG_OF_PERICENTER":266.5317,"MEAN_ANOMALY":93.4828,"EPHEMERIS_TYPE":0,"CLASSIFICATION_TYPE":"U","NORAD_CAT_ID":64503,"ELEMENT_SET_NO":999,"REV_AT_EPOCH":3933,"BSTAR":0.001311522,"MEAN_MOTION_DOT":9.798e-5,"MEAN_MOTION_DDOT":0},{"OBJECT_NAME":"KUIPER-00043","OBJECT_ID":"2025-134E","EPOCH":"2026-03-05T05:13:49.560672","MEAN_MOTION":14.83798895,"ECCENTRICITY":9.5e-5,"INCLINATION":51.9012,"RA_OF_ASC_NODE":252.913,"ARG_OF_PERICENTER":321.1258,"MEAN_ANOMALY":38.9638,"EPHEMERIS_TYPE":0,"CLASSIFICATION_TYPE":"U","NORAD_CAT_ID":64504,"ELEMENT_SET_NO":999,"REV_AT_EPOCH":3941,"BSTAR":0.00066665934,"MEAN_MOTION_DOT":5.352e-5,"MEAN_MOTION_DDOT":0}]
