KUIPER-00027            
1 63740U 25088S   26064.54104842  .00006430  00000+0  87154-3 0  9999
2 63740  51.9008 113.9297 0000793  84.0673 276.0379 14.79940528 47008
KUIPER-00028            
1 63741U 25088T   26063.36192456  .00003680  00000+0  51058-3 0  9995
2 63741  51.8989 116.6123 0000624  77.0276 283.0756 14.80003574 47277
KUIPER-00029            
1 63742U 25088U   26064.52112063  .00006413  00000+0  79668-3 0  9995
2 63742  51.9003 109.1186 0000697  97.3784 262.7259 14.83621058 47000
KUIPER-00030            
1 63743U 25088V   26064.59244666  .00003343  00000+0  46727-3 0  9997
2 63743  51.8994 128.6615 0010687  57.3770 302.8223 14.79924777 47021
KUIPER-00031            
1 63744U 25088W   26063.51778986  .00007427  00000+0  91847-3 0  9996
2 63744  51.8993 118.6945 0002182 127.3613 232.7550 14.83605758 46787
KUIPER-00032            
1 63745U 25088X   26064.63773205  .00019943  00000+0  54867-3 0  9997
2 63745  51.8699  43.8146 0005326  98.3350 261.8241 15.37161217 48926
KUIPER-00033            
1 63746U 25088Y   26064.51219813  .00007615  00000+0  94526-3 0  9994
2 63746  51.9001 144.4321 0000806  44.6271 315.4758 14.83417251 46998
KUIPER-00034            
1 63747U 25088Z   26064.53479243 -.00004660  00000+0 -53366-3 0  9998
2 63747  51.9013 106.6706 0001752 339.7987  20.2907 14.83522475 47209
KUIPER-00035            
1 63748U 25088AA  26064.57305635  .00008456  00000+0  10506-2 0  9999
2 63748  51.8997 132.1676 0003941  62.6398 297.4966 14.83254806 46909
KUIPER-00037            
1 63749U 25088AB  26064.18457390  .00013009  00000+0  17319-2 0  9992
2 63749  51.8999 132.9840 0000886  54.3505 305.7540 14.79937985 47640
KUIPER-00038            
1 63750U 25088AC  26064.53837839  .00002458  00000+0  35108-3 0  9996
2 63750  51.9021 116.4478 0000672  95.3872 264.7167 14.79961523 46900
KUIPER-00039            
1 64500U 25134A   26064.24096017  .00004536  00000+0  62354-3 0  9997
2 64500  51.8999 252.7644 0001023  66.7854 293.3216 14.79934685 39419
KUIPER-00040            
1 64501U 25134B   26064.56599884  .00003626  00000+0  50335-3 0  9998
2 64501  51.8976 262.4627 0013652 251.0218 108.9265 14.79994547 39304
KUIPER-00041            
1 64502U 25134C   26064.57152889  .00004119  00000+0  58534-3 0  9997
2 64502  51.8975 263.8618 0007080 252.2565 107.7624 14.78711554 39282
KUIPER-00042            
1 64503U 25134D   26064.50119412  .00009798  00000+0  13115-2 0  9999
2 64503  51.8982 260.1126 0007150 266.5317  93.4828 14.79950964 39330
KUIPER-00043            
1 64504U 25134E   26064.21793473  .00005352  00000+0  66666-3 0  9995
2 64504  51.9012 252.9130 0000950 321.1258  38.9638 14.83798895 39413
